OBJECT_NAME,OBJECT_ID,EPOCH,MEAN_MOTION,ECCENTRICITY,INCLINATION,RA_OF_ASC_NODE,ARG_OF_PERICENTER,MEAN_ANOMALY,EPHEMERIS_TYPE,CLASSIFICATION_TYPE,NORAD_CAT_ID,ELEMENT_SET_NO,REV_AT_EPOCH,BSTAR,MEAN_MOTION_DOT,MEAN_MOTION_DDOT
STARLINK-11547 [DTC],2025-008A,2026-06-15T13:19:35.501664,15.70896506,.00014061,42.9992,256.4735,263.9931,96.0777,0,U,62587,999,8150,.15404551E-2,.202585E-2,0
STARLINK-11185 [DTC],2025-008B,2026-06-15T12:33:43.211520,15.70856407,.00005899,42.9979,256.2156,258.5324,101.5478,0,U,62588,999,8150,.96164233E-3,.124898E-2,0
STARLINK-11513 [DTC],2025-008C,2026-06-15T13:04:17.874048,15.70878225,.00012984,42.9990,256.3856,225.3558,134.7204,0,U,62589,999,8150,.78939316E-3,.102259E-2,0
STARLINK-11397 [DTC],2025-008D,2026-06-14T13:17:22.750656,15.70923696,.00027568,42.9964,261.8340,256.1914,103.8647,0,U,62590,999,8246,.13489856E-2,.177016E-2,0
STARLINK-11420 [DTC],2025-008E,2026-06-15T13:11:56.728896,15.70910132,.00025806,42.9993,256.4302,269.2534,90.8038,0,U,62591,999,8268,.14566284E-2,.191397E-2,0
STARLINK-11415 [DTC],2025-008F,2026-06-15T05:57:05.111712,15.70860007,.0004021,43.0007,258.4805,328.0530,32.0093,0,U,62592,999,8256,.93901E-3,.12196E-2,0
STARLINK-11413 [DTC],2025-008G,2026-06-14T17:36:56.697120,15.70899892,.0003429,43.0021,261.4956,265.1752,94.8725,0,U,62593,999,8244,.11869318E-2,.155142E-2,0
STARLINK-11416 [DTC],2025-008H,2026-06-15T14:00:01.999872,15.91511099,.0012466,42.9870,249.8152,18.9164,188.9329,0,U,62594,999,575,.57474761E-3,.19187E-2,.21818488E-4
STARLINK-11535 [DTC],2025-008J,2026-06-14T13:25:01.093152,15.70861225,.00015878,43.0001,261.8752,233.8990,126.1731,0,U,62595,999,8237,.17011127E-2,.224011E-2,0
STARLINK-11521 [DTC],2025-008L,2026-06-15T12:41:21.321600,15.70886993,.00014012,42.9994,256.2546,257.4729,102.5982,0,U,62597,999,8267,.10992347E-2,.143338E-2,0
STARLINK-11258 [DTC],2025-008M,2026-06-15T06:42:45.552960,15.70877187,.0002117,43.0005,257.8268,265.6561,94.4064,0,U,62598,999,8263,.11444E-2,.1493E-2,0
STARLINK-11529 [DTC],2025-008N,2026-06-15T12:56:39.150528,15.70898378,.00012821,42.9991,256.3388,256.6730,103.3995,0,U,62599,999,8268,.15826942E-2,.208313E-2,0
STARLINK-32747,2025-008P,2026-06-15T11:05:45.663648,15.27597822,.00019965,42.9966,86.0825,276.9862,83.0762,0,U,62600,999,8051,.70488182E-3,.19196E-3,0
STARLINK-32767,2025-008Q,2026-06-15T11:48:06.437088,15.27572798,.00014384,43.0045,85.4404,263.9494,96.1194,0,U,62601,999,8058,.639158E-3,.17364E-3,0
STARLINK-32769,2025-008R,2026-06-15T11:53:39.928992,15.27592136,.00006231,43.0049,85.4657,275.8161,84.2620,0,U,62602,999,8058,.51244242E-3,.13871E-3,0
STARLINK-32778,2025-008S,2026-06-15T11:22:25.169952,15.27584215,.00013351,42.9977,86.1738,283.6704,76.3998,0,U,62603,999,8051,.43669284E-3,.11776E-3,0
STARLINK-32710,2025-008T,2026-06-15T11:27:45.268128,15.27599457,.00013627,42.9964,85.3325,267.6451,92.4244,0,U,62604,999,8052,.41673474E-3,.1123E-3,0
STARLINK-32742,2025-008U,2026-06-15T11:33:17.936640,15.27605616,.00025135,42.9965,85.3630,266.8932,93.1632,0,U,62605,999,8057,.88239852E-3,.24119E-3,0
STARLINK-32783,2025-008V,2026-06-15T11:59:12.706368,15.27597444,.0000527,43.0043,85.4965,271.9902,88.0890,0,U,62606,999,8052,.50370511E-3,.13632E-3,0
STARLINK-32784,2025-008W,2026-06-15T14:00:01.999872,15.48528796,.00213621,42.9929,73.4755,210.5760,348.0185,0,U,62607,999,585,.24278865E-2,.135619E-2,0
BUZZER-1,2025-009A,2026-06-15T03:28:31.634976,15.21614408,.00072091,97.3929,244.4280,354.0086,6.1063,0,U,62609,999,7838,.12469955E-3,.2747E-4,0
EDISON-1,2025-009B,2026-06-15T14:53:39.972192,15.31575686,.00041084,97.4008,249.1351,323.6123,36.4839,0,U,62610,999,7871,.34384431E-3,.10412E-3,0
BALKAN-1,2025-009C,2026-06-15T04:14:38.034240,15.25002486,.00062898,97.3926,245.4369,356.2196,3.8994,0,U,62611,999,7845,.23620023E-3,.5825E-4,0
GESAT GEN1,2025-009D,2026-06-15T04:31:12.825696,15.28574288,.00011572,97.4026,248.2447,85.8593,274.2779,0,U,62612,999,7861,.27483279E-3,.7566E-4,0
FLOCK 4G-8,2025-009E,2026-06-15T04:30:52.913952,15.29709758,.00029403,97.4016,248.2007,337.8771,22.2342,0,U,62613,999,7861,.28460965E-3,.8117E-4,0
TRANSPORTER-12 OBJECT G,2025-009G,2026-06-15T04:18:47.547072,15.25761212,.00054689,97.3951,246.1661,349.7217,10.3909,0,U,62615,999,7849,.21046182E-3,.5302E-4,0
INNOCUBE (TUBSAT-31),2025-009H,2026-06-15T04:27:36.302112,15.26481566,.00052627,97.3912,246.1980,354.6992,5.4190,0,U,62616,999,7851,.24048574E-3,.6203E-4,0
SCOT-1 (SCOT),2025-009J,2026-06-15T03:33:09.798912,15.53968701,.00027511,97.3872,253.9333,274.0435,86.0504,0,U,62617,999,7903,.76223107E-3,.49355E-3,0
AE1D,2025-009K,2026-06-15T12:04:33.855168,15.61159227,.00029513,97.3958,256.2709,272.0904,88.0015,0,U,62618,999,7918,.10518257E-2,.89527E-3,0
IRIS-F3,2025-009L,2026-06-15T13:09:20.726784,15.27019545,.00055287,97.4052,247.4005,342.1065,17.9978,0,U,62619,999,7857,.19187117E-3,.5015E-4,0
