STARLINK-11547 [DTC]    
1 62587U 25008A   26166.55527201  .00202585  00000+0  15405-2 0  9999
2 62587  42.9992 256.4735 0001406 263.9931  96.0777 15.70896506 81508
STARLINK-11185 [DTC]    
1 62588U 25008B   26166.52341680  .00124898  00000+0  96164-3 0  9994
2 62588  42.9979 256.2156 0000589 258.5324 101.5478 15.70856407 81502
STARLINK-11513 [DTC]    
1 62589U 25008C   26166.54465132  .00102259  00000+0  78939-3 0  9993
2 62589  42.9990 256.3856 0001298 225.3558 134.7204 15.70878225 81500
STARLINK-11397 [DTC]    
1 62590U 25008D   26165.55373554  .00177016  00000+0  13490-2 0  9994
2 62590  42.9964 261.8340 0002756 256.1914 103.8647 15.70923696 82467
STARLINK-11420 [DTC]    
1 62591U 25008E   26166.54996214  .00191397  00000+0  14566-2 0  9992
2 62591  42.9993 256.4302 0002580 269.2534  90.8038 15.70910132 82680
STARLINK-11415 [DTC]    
1 62592U 25008F   26166.24797583  .00121960  00000+0  93901-3 0  9998
2 62592  43.0007 258.4805 0004021 328.0530  32.0093 15.70860007 82562
STARLINK-11413 [DTC]    
1 62593U 25008G   26165.73398955  .00155142  00000+0  11869-2 0  9993
2 62593  43.0021 261.4956 0003429 265.1752  94.8725 15.70899892 82447
STARLINK-11416 [DTC]    
1 62594U 25008H   26166.58335648  .00191870  21818-4  57475-3 0  9995
2 62594  42.9870 249.8152 0012466  18.9164 188.9329 15.91511099  5755
STARLINK-11535 [DTC]    
1 62595U 25008J   26165.55904043  .00224011  00000+0  17011-2 0  9993
2 62595  43.0001 261.8752 0001587 233.8990 126.1731 15.70861225 82371
STARLINK-11521 [DTC]    
1 62597U 25008L   26166.52871900  .00143338  00000+0  10992-2 0  9991
2 62597  42.9994 256.2546 0001401 257.4729 102.5982 15.70886993 82676
STARLINK-11258 [DTC]    
1 62598U 25008M   26166.27969390  .00149300  00000+0  11444-2 0  9993
2 62598  43.0005 257.8268 0002117 265.6561  94.4064 15.70877187 82631
STARLINK-11529 [DTC]    
1 62599U 25008N   26166.53934202  .00208313  00000+0  15827-2 0  9996
2 62599  42.9991 256.3388 0001282 256.6730 103.3995 15.70898378 82684
STARLINK-32747          
1 62600U 25008P   26166.46233407  .00019196  00000+0  70488-3 0  9994
2 62600  42.9966  86.0825 0001996 276.9862  83.0762 15.27597822 80514
STARLINK-32767          
1 62601U 25008Q   26166.49174117  .00017364  00000+0  63916-3 0  9993
2 62601  43.0045  85.4404 0001438 263.9494  96.1194 15.27572798 80585
STARLINK-32769          
1 62602U 25008R   26166.49560103  .00013871  00000+0  51244-3 0  9998
2 62602  43.0049  85.4657 0000623 275.8161  84.2620 15.27592136 80588
STARLINK-32778          
1 62603U 25008S   26166.47390243  .00011776  00000+0  43669-3 0  9997
2 62603  42.9977  86.1738 0001335 283.6704  76.3998 15.27584215 80518
STARLINK-32710          
1 62604U 25008T   26166.47760727  .00011230  00000+0  41673-3 0  9994
2 62604  42.9964  85.3325 0001362 267.6451  92.4244 15.27599457 80527
STARLINK-32742          
1 62605U 25008U   26166.48145760  .00024119  00000+0  88240-3 0  9991
2 62605  42.9965  85.3630 0002513 266.8932  93.1632 15.27605616 80571
STARLINK-32783          
1 62606U 25008V   26166.49945262  .00013632  00000+0  50371-3 0  9990
2 62606  43.0043  85.4965 0000527 271.9902  88.0890 15.27597444 80523
STARLINK-32784          
1 62607U 25008W   26166.58335648  .00135619  00000+0  24279-2 0  9999
2 62607  42.9929  73.4755 0021362 210.5760 348.0185 15.48528796  5856
BUZZER-1                
1 62609U 25009A   26166.14481059  .00002747  00000+0  12470-3 0  9998
2 62609  97.3929 244.4280 0007209 354.0086   6.1063 15.21614408 78386
EDISON-1                
1 62610U 25009B   26166.62060153  .00010412  00000+0  34384-3 0  9997
2 62610  97.4008 249.1351 0004108 323.6123  36.4839 15.31575686 78716
BALKAN-1                
1 62611U 25009C   26166.17682910  .00005825  00000+0  23620-3 0  9992
2 62611  97.3926 245.4369 0006289 356.2196   3.8994 15.25002486 78454
GESAT GEN1              
1 62612U 25009D   26166.18834289  .00007566  00000+0  27483-3 0  9997
2 62612  97.4026 248.2447 0001157  85.8593 274.2779 15.28574288 78610
FLOCK 4G-8              
1 62613U 25009E   26166.18811243  .00008117  00000+0  28461-3 0  9993
2 62613  97.4016 248.2007 0002940 337.8771  22.2342 15.29709758 78611
TRANSPORTER-12 OBJECT G 
1 62615U 25009G   26166.17971698  .00005302  00000+0  21046-3 0  9990
2 62615  97.3951 246.1661 0005468 349.7217  10.3909 15.25761212 78490
INNOCUBE (TUBSAT-31)    
1 62616U 25009H   26166.18583683  .00006203  00000+0  24049-3 0  9992
2 62616  97.3912 246.1980 0005262 354.6992   5.4190 15.26481566 78511
SCOT-1 (SCOT)           
1 62617U 25009J   26166.14803008  .00049355  00000+0  76223-3 0  9991
2 62617  97.3872 253.9333 0002751 274.0435  86.0504 15.53968701 79035
AE1D                    
1 62618U 25009K   26166.50316962  .00089527  00000+0  10518-2 0  9999
2 62618  97.3958 256.2709 0002951 272.0904  88.0015 15.61159227 79184
IRIS-F3                 
1 62619U 25009L   26166.54815656  .00005015  00000+0  19187-3 0  9990
2 62619  97.4052 247.4005 0005528 342.1065  17.9978 15.27019545 78573
